{"type": "FeatureCollection", "features": [ {"type": "Feature", "properties": {"norad_id": 17070, "name": "POLAR BEAR", "group": "nnss", "lat": -61.1857583884505, "lon": 4.269886676117527, "alt_km": 1009.9182450598782, "timestamp": "2025-12-17T17:50:19.519316+00:00", "meta": {"OBJECT_NAME": "POLAR BEAR", "OBJECT_ID": "1986-088A", "EPOCH": "2025-12-17T07:01:51.357792", "MEAN_MOTION": 13.75251716, "ECCENTRICITY": 0.00411923, "INCLINATION": 89.6171, "RA_OF_ASC_NODE": 183.5915, "ARG_OF_PERICENTER": 106.1101, "MEAN_ANOMALY": 66.5279, "EPHEMERIS_TYPE": 0, "CLASSIFICATION_TYPE": "U", "NORAD_CAT_ID": 17070, "ELEMENT_SET_NO": 999, "REV_AT_EPOCH": 96041, "BSTAR": 0.00011323622, "MEAN_MOTION_DOT": 1.21e-06, "MEAN_MOTION_DDOT": 0}, "tle": {"line1": "1 17070U 86088A   25351.29295553  .00000121  00000+0  11324-3 0  9998", "line2": "2 17070  89.6171 183.5915 0041192 106.1101  66.5279 13.75251716960411"}}, "geometry": {"type": "Point", "coordinates": [4.269886676117527, -61.1857583884505]}}, {"type": "Feature", "properties": {"norad_id": 18361, "name": "OSCAR 27", "group": "nnss", "lat": -46.50562912427519, "lon": 79.8541736544547, "alt_km": 1116.078218985138, "timestamp": "2025-12-17T17:50:19.519327+00:00", "meta": {"OBJECT_NAME": "OSCAR 27", "OBJECT_ID": "1987-080A", "EPOCH": "2025-12-17T07:21:31.966272", "MEAN_MOTION": 13.44907623, "ECCENTRICITY": 0.01032691, "INCLINATION": 90.3742, "RA_OF_ASC_NODE": 79.4432, "ARG_OF_PERICENTER": 210.6095, "MEAN_ANOMALY": 148.9002, "EPHEMERIS_TYPE": 0, "CLASSIFICATION_TYPE": "U", "NORAD_CAT_ID": 18361, "ELEMENT_SET_NO": 999, "REV_AT_EPOCH": 87618, "BSTAR": 0.00014727531, "MEAN_MOTION_DOT": 9.7e-07, "MEAN_MOTION_DDOT": 0}, "tle": {"line1": "1 18361U 87080A   25351.30661998  .00000097  00000+0  14728-3 0  9990", "line2": "2 18361  90.3742  79.4432 0103269 210.6095 148.9002 13.44907623876182"}}, "geometry": {"type": "Point", "coordinates": [79.8541736544547, -46.50562912427519]}}, {"type": "Feature", "properties": {"norad_id": 18362, "name": "OSCAR 29", "group": "nnss", "lat": -42.5231600262192, "lon": 80.26318287327952, "alt_km": 1091.6993964564472, "timestamp": "2025-12-17T17:50:19.519337+00:00", "meta": {"OBJECT_NAME": "OSCAR 29", "OBJECT_ID": "1987-080B", "EPOCH": "2025-12-17T07:39:36.464256", "MEAN_MOTION": 13.44449213, "ECCENTRICITY": 0.01041758, "INCLINATION": 90.3753, "RA_OF_ASC_NODE": 79.9029, "ARG_OF_PERICENTER": 233.8701, "MEAN_ANOMALY": 191.0249, "EPHEMERIS_TYPE": 0, "CLASSIFICATION_TYPE": "U", "NORAD_CAT_ID": 18362, "ELEMENT_SET_NO": 999, "REV_AT_EPOCH": 87571, "BSTAR": 0.00012927642, "MEAN_MOTION_DOT": 8.5e-07, "MEAN_MOTION_DDOT": 0}, "tle": {"line1": "1 18362U 87080B   25351.31917204  .00000085  00000+0  12928-3 0  9993", "line2": "2 18362  90.3753  79.9029 0104175 233.8701 191.0249 13.44449213875716"}}, "geometry": {"type": "Point", "coordinates": [80.26318287327952, -42.5231600262192]}}, {"type": "Feature", "properties": {"norad_id": 19070, "name": "OSCAR 23", "group": "nnss", "lat": 28.414580347735203, "lon": -163.27853752454467, "alt_km": 1015.1367942071392, "timestamp": "2025-12-17T17:50:19.519352+00:00", "meta": {"OBJECT_NAME": "OSCAR 23", "OBJECT_ID": "1988-033A", "EPOCH": "2025-12-17T08:05:39.969024", "MEAN_MOTION": 13.27787822, "ECCENTRICITY": 0.01899119, "INCLINATION": 90.3209, "RA_OF_ASC_NODE": 16.5351, "ARG_OF_PERICENTER": 167.1497, "MEAN_ANOMALY": 205.2488, "EPHEMERIS_TYPE": 0, "CLASSIFICATION_TYPE": "U", "NORAD_CAT_ID": 19070, "ELEMENT_SET_NO": 999, "REV_AT_EPOCH": 82314, "BSTAR": 0.00014541047, "MEAN_MOTION_DOT": 8.1e-07, "MEAN_MOTION_DDOT": 0}, "tle": {"line1": "1 19070U 88033A   25351.33726816  .00000081  00000+0  14541-3 0  9997", "line2": "2 19070  90.3209  16.5351 0189911 167.1497 205.2488 13.27787822823141"}}, "geometry": {"type": "Point", "coordinates": [-163.27853752454467, 28.414580347735203]}}, {"type": "Feature", "properties": {"norad_id": 19071, "name": "OSCAR 32", "group": "nnss", "lat": -87.30930739872683, "lon": -170.17931312233864, "alt_km": 1218.4815573152882, "timestamp": "2025-12-17T17:50:19.519374+00:00", "meta": {"OBJECT_NAME": "OSCAR 32", "OBJECT_ID": "1988-033B", "EPOCH": "2025-12-17T07:31:51.810240", "MEAN_MOTION": 13.27954621, "ECCENTRICITY": 0.01887073, "INCLINATION": 90.3214, "RA_OF_ASC_NODE": 16.6666, "ARG_OF_PERICENTER": 154.1097, "MEAN_ANOMALY": 219.2046, "EPHEMERIS_TYPE": 0, "CLASSIFICATION_TYPE": "U", "NORAD_CAT_ID": 19071, "ELEMENT_SET_NO": 999, "REV_AT_EPOCH": 82326, "BSTAR": 0.00017027591, "MEAN_MOTION_DOT": 9.4e-07, "MEAN_MOTION_DDOT": 0}, "tle": {"line1": "1 19071U 88033B   25351.31379410  .00000094  00000+0  17028-3 0  9997", "line2": "2 19071  90.3214  16.6666 0188707 154.1097 219.2046 13.27954621823263"}}, "geometry": {"type": "Point", "coordinates": [-170.17931312233864, -87.30930739872683]}}, {"type": "Feature", "properties": {"norad_id": 19223, "name": "NOVA 2", "group": "nnss", "lat": 12.255811165321061, "lon": 78.26913653845112, "alt_km": 1152.1998034087383, "timestamp": "2025-12-17T17:50:19.519388+00:00", "meta": {"OBJECT_NAME": "NOVA 2", "OBJECT_ID": "1988-052A", "EPOCH": "2025-12-17T07:11:58.429248", "MEAN_MOTION": 13.22936334, "ECCENTRICITY": 0.00301991, "INCLINATION": 89.9872, "RA_OF_ASC_NODE": 78.2669, "ARG_OF_PERICENTER": 4.4143, "MEAN_ANOMALY": 57.8715, "EPHEMERIS_TYPE": 0, "CLASSIFICATION_TYPE": "U", "NORAD_CAT_ID": 19223, "ELEMENT_SET_NO": 999, "REV_AT_EPOCH": 81008, "BSTAR": 0.00012801318, "MEAN_MOTION_DOT": 6.3e-07, "MEAN_MOTION_DDOT": 0}, "tle": {"line1": "1 19223U 88052A   25351.29998182  .00000063  00000+0  12801-3 0  9997", "line2": "2 19223  89.9872  78.2669 0030199   4.4143  57.8715 13.22936334810084"}}, "geometry": {"type": "Point", "coordinates": [78.26913653845112, 12.255811165321061]}}, {"type": "Feature", "properties": {"norad_id": 19419, "name": "OSCAR 25", "group": "nnss", "lat": 82.07334410160591, "lon": 20.014232075473547, "alt_km": 1152.8543492643767, "timestamp": "2025-12-17T17:50:19.519399+00:00", "meta": {"OBJECT_NAME": "OSCAR 25", "OBJECT_ID": "1988-074A", "EPOCH": "2025-12-17T08:32:08.109024", "MEAN_MOTION": 13.42624184, "ECCENTRICITY": 0.00946725, "INCLINATION": 90.0343, "RA_OF_ASC_NODE": 20.2594, "ARG_OF_PERICENTER": 232.4617, "MEAN_ANOMALY": 137.691, "EPHEMERIS_TYPE": 0, "CLASSIFICATION_TYPE": "U", "NORAD_CAT_ID": 19419, "ELEMENT_SET_NO": 999, "REV_AT_EPOCH": 82702, "BSTAR": 0.00016982125, "MEAN_MOTION_DOT": 1.07e-06, "MEAN_MOTION_DDOT": 0}, "tle": {"line1": "1 19419U 88074A   25351.35564941  .00000107  00000+0  16982-3 0  9990", "line2": "2 19419  90.0343  20.2594 0094672 232.4617 137.6910 13.42624184827021"}}, "geometry": {"type": "Point", "coordinates": [20.014232075473547, 82.07334410160591]}}, {"type": "Feature", "properties": {"norad_id": 19420, "name": "OSCAR 31", "group": "nnss", "lat": -33.33601564894324, "lon": 20.635232132443523, "alt_km": 1118.7941413795443, "timestamp": "2025-12-17T17:50:19.519410+00:00", "meta": {"OBJECT_NAME": "OSCAR 31", "OBJECT_ID": "1988-074B", "EPOCH": "2025-12-17T02:10:38.456832", "MEAN_MOTION": 13.4258528, "ECCENTRICITY": 0.00930033, "INCLINATION": 90.036, "RA_OF_ASC_NODE": 20.6092, "ARG_OF_PERICENTER": 227.363, "MEAN_ANOMALY": 186.2016, "EPHEMERIS_TYPE": 0, "CLASSIFICATION_TYPE": "U", "NORAD_CAT_ID": 19420, "ELEMENT_SET_NO": 999, "REV_AT_EPOCH": 82709, "BSTAR": 0.00015342752, "MEAN_MOTION_DOT": 9.8e-07, "MEAN_MOTION_DDOT": 0}, "tle": {"line1": "1 19420U 88074B   25351.09072288  .00000098  00000+0  15343-3 0  9990", "line2": "2 19420  90.0360  20.6092 0093003 227.3630 186.2016 13.42585280827091"}}, "geometry": {"type": "Point", "coordinates": [20.635232132443523, -33.33601564894324]}}]}